*******************************************************************************
Ephemeris / WWW_USER Mon Mar 24 08:02:34 2025 Pasadena, USA      / Horizons    
*******************************************************************************
Target body name: (2018 UM1)                      {source: JPL#32}
Center body name: Earth (399)                     {source: DE441}
Center-site name: Mauna Kea
*******************************************************************************
Start time      : A.D. 2018-Sep-14 04:35:00.0000 UT      
Stop  time      : A.D. 2018-Sep-14 16:00:00.0000 UT      
Step-size       : 1 minutes
*******************************************************************************
Target pole/equ : undefined
Target radii    : undefined                                                    
Center geodetic : 204.5278, 19.8260847, 4.21024   {E-lon(deg),Lat(deg),Alt(km)}
Center cylindric: 204.5278, 6006.35451, 2151.0229 {E-lon(deg),Dxy(km),Dz(km)}
Center pole/equ : ITRF93                          {East-longitude positive}
Center radii    : 6378.137, 6378.137, 6356.752 km {Equator_a, b, pole_c}       
Target primary  : Sun
Vis. interferer : MOON (R_eq= 1737.400) km        {source: DE441}
Rel. light bend : Sun                             {source: DE441}
Rel. lght bnd GM: 1.3271E+11 km^3/s^2                                          
Small-body perts: Yes                             {source: SB441-N16}
Atmos refraction: NO (AIRLESS)
RA format       : HMS
Time format     : CAL 
Calendar mode   : Mixed Julian/Gregorian
RTS-only print  : NO       
EOP file        : eop.250321.p250617                                           
EOP coverage    : DATA-BASED 1962-JAN-20 TO 2025-MAR-21. PREDICTS-> 2025-JUN-16
Units conversion: 1 au= 149597870.700 km, c= 299792.458 km/s, 1 day= 86400.0 s 
Table cut-offs 1: Elevation (-90.0deg=NO ),Airmass (>38.000=NO), Daylight (YES)
Table cut-offs 2: Solar elongation (  0.0,180.0=NO ),Local Hour Angle( 0.0=NO )
Table cut-offs 3: RA/DEC angular rate (     0.0=NO )                           
*******************************************************************************
Initial IAU76/J2000 heliocentric ecliptic osculating elements (au, days, deg.):
  EPOCH=  2458316.5 ! 2018-Jul-17.00 (TDB)         Residual RMS= .13282        
   EC= .1732206266096905   QR= .9442469573310488   TP= 2458347.0882341689      
   OM= 261.2771090241423   W=  53.36399135060417   IN= 1.987806152492243       
  Equivalent ICRF heliocentric cartesian coordinates (au, au/d):
   X= 1.631856825953344E-01  Y=-8.815145891163165E-01  Z=-3.705958742828900E-01
  VX= 1.811434055353769E-02 VY= 4.114587132606022E-03 VZ= 2.434006136501484E-03
Asteroid physical parameters (km, seconds, rotational period in hours):        
   GM= n.a.                RAD= n.a.               ROTPER= n.a.                
   H= 23.64                G= .150                 B-V= n.a.                   
                           ALBEDO= n.a.            STYP= n.a.                  
*******************************************************************************
 Date__(UT)__HR:MN     R.A._________(ICRF)_________DEC
******************************************************
$$SOE
 2018-Sep-14 04:35 Cm  15 25 40.277893 +06 12 49.80643
 2018-Sep-14 04:36 Cm  15 25 40.482290 +06 12 51.13802
 2018-Sep-14 04:37 Cm  15 25 40.686768 +06 12 52.46949
 2018-Sep-14 04:38 Cm  15 25 40.891327 +06 12 53.80084
 2018-Sep-14 04:39 Cm  15 25 41.095968 +06 12 55.13207
 2018-Sep-14 04:40 Cm  15 25 41.300691 +06 12 56.46319
 2018-Sep-14 04:41 Cm  15 25 41.505496 +06 12 57.79418
 2018-Sep-14 04:42 Cm  15 25 41.710385 +06 12 59.12506
 2018-Sep-14 04:43 Cm  15 25 41.915357 +06 13 00.45582
 2018-Sep-14 04:44 Cm  15 25 42.120413 +06 13 01.78647
 2018-Sep-14 04:45 Cm  15 25 42.325554 +06 13 03.11700
 2018-Sep-14 04:46 Cm  15 25 42.530779 +06 13 04.44741
 2018-Sep-14 04:47 Cm  15 25 42.736090 +06 13 05.77771
 2018-Sep-14 04:48 Cm  15 25 42.941487 +06 13 07.10789
 2018-Sep-14 04:49 Nm  15 25 43.146970 +06 13 08.43796
 2018-Sep-14 04:50 Nm  15 25 43.352539 +06 13 09.76792
 2018-Sep-14 04:51 Nm  15 25 43.558196 +06 13 11.09777
 2018-Sep-14 04:52 Nm  15 25 43.763940 +06 13 12.42750
 2018-Sep-14 04:53 Nm  15 25 43.969773 +06 13 13.75712
 2018-Sep-14 04:54 Nm  15 25 44.175693 +06 13 15.08662
 2018-Sep-14 04:55 Nm  15 25 44.381703 +06 13 16.41602
 2018-Sep-14 04:56 Nm  15 25 44.587802 +06 13 17.74531
 2018-Sep-14 04:57 Nm  15 25 44.793991 +06 13 19.07448
 2018-Sep-14 04:58 Nm  15 25 45.000270 +06 13 20.40355
 2018-Sep-14 04:59 Nm  15 25 45.206640 +06 13 21.73251
 2018-Sep-14 05:00 Nm  15 25 45.413101 +06 13 23.06136
 2018-Sep-14 05:01 Nm  15 25 45.619654 +06 13 24.39010
 2018-Sep-14 05:02 Nm  15 25 45.826298 +06 13 25.71874
 2018-Sep-14 05:03 Nm  15 25 46.033035 +06 13 27.04727
 2018-Sep-14 05:04 Nm  15 25 46.239865 +06 13 28.37569
 2018-Sep-14 05:05 Nm  15 25 46.446788 +06 13 29.70401
 2018-Sep-14 05:06 Nm  15 25 46.653804 +06 13 31.03222
 2018-Sep-14 05:07 Nm  15 25 46.860915 +06 13 32.36033
 2018-Sep-14 05:08 Nm  15 25 47.068120 +06 13 33.68834
 2018-Sep-14 05:09 Nm  15 25 47.275420 +06 13 35.01624
 2018-Sep-14 05:10 Nm  15 25 47.482816 +06 13 36.34404
 2018-Sep-14 05:11 Nm  15 25 47.690307 +06 13 37.67173
 2018-Sep-14 05:12 Nm  15 25 47.897894 +06 13 38.99933
 2018-Sep-14 05:13 Nm  15 25 48.105578 +06 13 40.32682
 2018-Sep-14 05:14 Am  15 25 48.313359 +06 13 41.65422
 2018-Sep-14 05:15 Am  15 25 48.521238 +06 13 42.98151
 2018-Sep-14 05:16 Am  15 25 48.729214 +06 13 44.30871
 2018-Sep-14 05:17 Am  15 25 48.937288 +06 13 45.63580
 2018-Sep-14 05:18 Am  15 25 49.145461 +06 13 46.96280
 2018-Sep-14 05:19 Am  15 25 49.353734 +06 13 48.28970
 2018-Sep-14 05:20 Am  15 25 49.562105 +06 13 49.61651
 2018-Sep-14 05:21 Am  15 25 49.770576 +06 13 50.94321
 2018-Sep-14 05:22 Am  15 25 49.979148 +06 13 52.26983
 2018-Sep-14 05:23 Am  15 25 50.187820 +06 13 53.59634
 2018-Sep-14 05:24 Am  15 25 50.396593 +06 13 54.92277
 2018-Sep-14 05:25 Am  15 25 50.605468 +06 13 56.24910
 2018-Sep-14 05:26 Am  15 25 50.814444 +06 13 57.57533
 2018-Sep-14 05:27 Am  15 25 51.023523 +06 13 58.90148
 2018-Sep-14 05:28 Am  15 25 51.232704 +06 14 00.22753
 2018-Sep-14 05:29 Am  15 25 51.441988 +06 14 01.55349
 2018-Sep-14 05:30 Am  15 25 51.651376 +06 14 02.87936
 2018-Sep-14 05:31 Am  15 25 51.860867 +06 14 04.20514
 2018-Sep-14 05:32 Am  15 25 52.070462 +06 14 05.53083
 2018-Sep-14 05:33 Am  15 25 52.280162 +06 14 06.85644
 2018-Sep-14 05:34 Am  15 25 52.489966 +06 14 08.18195
 2018-Sep-14 05:35 Am  15 25 52.699876 +06 14 09.50738
 2018-Sep-14 05:36 Am  15 25 52.909891 +06 14 10.83272
 2018-Sep-14 05:37 Am  15 25 53.120013 +06 14 12.15798
 2018-Sep-14 05:38 Am  15 25 53.330240 +06 14 13.48314
 2018-Sep-14 05:39 Am  15 25 53.540575 +06 14 14.80823
 2018-Sep-14 05:40  m  15 25 53.751016 +06 14 16.13323
 2018-Sep-14 05:41  m  15 25 53.961565 +06 14 17.45815
 2018-Sep-14 05:42  m  15 25 54.172221 +06 14 18.78298
 2018-Sep-14 05:43  m  15 25 54.382986 +06 14 20.10773
 2018-Sep-14 05:44  m  15 25 54.593859 +06 14 21.43240
 2018-Sep-14 05:45  m  15 25 54.804842 +06 14 22.75699
 2018-Sep-14 05:46  m  15 25 55.015933 +06 14 24.08150
 2018-Sep-14 05:47  m  15 25 55.227134 +06 14 25.40593
 2018-Sep-14 05:48  m  15 25 55.438444 +06 14 26.73029
 2018-Sep-14 05:49  m  15 25 55.649865 +06 14 28.05456
 2018-Sep-14 05:50  m  15 25 55.861397 +06 14 29.37876
 2018-Sep-14 05:51  m  15 25 56.073040 +06 14 30.70288
 2018-Sep-14 05:52  m  15 25 56.284793 +06 14 32.02692
 2018-Sep-14 05:53  m  15 25 56.496659 +06 14 33.35089
 2018-Sep-14 05:54  m  15 25 56.708636 +06 14 34.67478
 2018-Sep-14 05:55  m  15 25 56.920726 +06 14 35.99860
 2018-Sep-14 05:56  m  15 25 57.132928 +06 14 37.32235
 2018-Sep-14 05:57  m  15 25 57.345244 +06 14 38.64602
 2018-Sep-14 05:58  m  15 25 57.557672 +06 14 39.96963
 2018-Sep-14 05:59  m  15 25 57.770214 +06 14 41.29316
 2018-Sep-14 06:00  m  15 25 57.982871 +06 14 42.61662
 2018-Sep-14 06:01  m  15 25 58.195641 +06 14 43.94001
 2018-Sep-14 06:02  m  15 25 58.408526 +06 14 45.26334
 2018-Sep-14 06:03  m  15 25 58.621526 +06 14 46.58659
 2018-Sep-14 06:04  m  15 25 58.834641 +06 14 47.90978
 2018-Sep-14 06:05  m  15 25 59.047872 +06 14 49.23290
 2018-Sep-14 06:06  m  15 25 59.261218 +06 14 50.55595
 2018-Sep-14 06:07  m  15 25 59.474681 +06 14 51.87894
 2018-Sep-14 06:08  m  15 25 59.688260 +06 14 53.20187
 2018-Sep-14 06:09  m  15 25 59.901956 +06 14 54.52473
 2018-Sep-14 06:10  m  15 26 00.115769 +06 14 55.84753
 2018-Sep-14 06:11  m  15 26 00.329699 +06 14 57.17026
 2018-Sep-14 06:12  m  15 26 00.543747 +06 14 58.49294
 2018-Sep-14 06:13  m  15 26 00.757913 +06 14 59.81555
 2018-Sep-14 06:14  m  15 26 00.972198 +06 15 01.13810
 2018-Sep-14 06:15  m  15 26 01.186601 +06 15 02.46060
 2018-Sep-14 06:16  m  15 26 01.401123 +06 15 03.78303
 2018-Sep-14 06:17  m  15 26 01.615764 +06 15 05.10541
 2018-Sep-14 06:18  m  15 26 01.830524 +06 15 06.42773
 2018-Sep-14 06:19  m  15 26 02.045404 +06 15 07.75000
 2018-Sep-14 06:20  m  15 26 02.260404 +06 15 09.07220
 2018-Sep-14 06:21  m  15 26 02.475525 +06 15 10.39436
 2018-Sep-14 06:22  m  15 26 02.690766 +06 15 11.71646
 2018-Sep-14 06:23  m  15 26 02.906128 +06 15 13.03851
 2018-Sep-14 06:24  m  15 26 03.121611 +06 15 14.36050
 2018-Sep-14 06:25  m  15 26 03.337215 +06 15 15.68244
 2018-Sep-14 06:26  m  15 26 03.552942 +06 15 17.00433
 2018-Sep-14 06:27  m  15 26 03.768790 +06 15 18.32618
 2018-Sep-14 06:28  m  15 26 03.984760 +06 15 19.64797
 2018-Sep-14 06:29  m  15 26 04.200853 +06 15 20.96971
 2018-Sep-14 06:30  m  15 26 04.417068 +06 15 22.29141
 2018-Sep-14 06:31  m  15 26 04.633407 +06 15 23.61305
 2018-Sep-14 06:32  m  15 26 04.849869 +06 15 24.93466
 2018-Sep-14 06:33  m  15 26 05.066454 +06 15 26.25621
 2018-Sep-14 06:34  m  15 26 05.283163 +06 15 27.57773
 2018-Sep-14 06:35  m  15 26 05.499997 +06 15 28.89919
 2018-Sep-14 06:36  m  15 26 05.716954 +06 15 30.22062
 2018-Sep-14 06:37  m  15 26 05.934036 +06 15 31.54200
